start=new Date('2022-12-06T00:00:00.000Z').valueOf();
sats=[{"FILE":"3682099","SITE":"AFETR","ELEMENT_SET_NO":"999","TIME_SYSTEM":"UTC","GP_ID":"219590950","OBJECT_TYPE":"PAYLOAD","LAUNCH_DATE":"2020-08-07","RCS_SIZE":"LARGE","EPOCH":"2022-12-05T12:56:18.025728","COUNTRY_CODE":"US","TLE_LINE1":"1 46033U 20055G   22339.53909752  .00001378  00000-0  11137-3 0  9992","REV_AT_EPOCH":"12948","DECAY_DATE":null,"EPHEMERIS_TYPE":"0","INCLINATION":"53.0551","APOAPSIS":"548.331","CENTER_NAME":"EARTH","CLASSIFICATION_TYPE":"U","RA_OF_ASC_NODE":"69.4186","TLE_LINE2":"2 46033  53.0551  69.4186 0001605  59.1087 301.0060 15.06398045129488","ECCENTRICITY":"0.00016050","NORAD_CAT_ID":"46033","MEAN_ELEMENT_THEORY":"SGP4","MEAN_MOTION_DOT":"0.00001378","BSTAR":"0.00011137000000","MEAN_MOTION":"15.06398045","OBJECT_ID":"2020-055G","PERIOD":"95.592","OBJECT_NAME":"STARLINK-1556","PERIAPSIS":"546.108","REF_FRAME":"TEME","MEAN_MOTION_DDOT":"0.0000000000000","SEMIMAJOR_AXIS":"6925.355","MEAN_ANOMALY":"301.0060","ARG_OF_PERICENTER":"59.1087"},{"MEAN_MOTION":"15.06397959","BSTAR":"0.00022143000000","OBJECT_ID":"2020-055H","PERIOD":"95.592","REF_FRAME":"TEME","MEAN_MOTION_DDOT":"0.0000000000000","OBJECT_NAME":"STARLINK-1557","PERIAPSIS":"546.156","SEMIMAJOR_AXIS":"6925.355","MEAN_ANOMALY":"286.6043","ARG_OF_PERICENTER":"73.5114","CLASSIFICATION_TYPE":"U","CENTER_NAME":"EARTH","TLE_LINE2":"2 46034  53.0574  68.4932 0001536  73.5114 286.6043 15.06397959129512","RA_OF_ASC_NODE":"68.4932","ECCENTRICITY":"0.00015360","NORAD_CAT_ID":"46034","MEAN_MOTION_DOT":"0.00003018","MEAN_ELEMENT_THEORY":"SGP4","EPOCH":"2022-12-05T17:48:13.705056","COUNTRY_CODE":"US","TLE_LINE1":"1 46034U 20055H   22339.74182529  .00003018  00000-0  22143-3 0  9993","REV_AT_EPOCH":"12951","EPHEMERIS_TYPE":"0","INCLINATION":"53.0574","DECAY_DATE":null,"APOAPSIS":"548.284","FILE":"3682465","SITE":"AFETR","ELEMENT_SET_NO":"999","TIME_SYSTEM":"UTC","GP_ID":"219623595","OBJECT_TYPE":"PAYLOAD","RCS_SIZE":"LARGE","LAUNCH_DATE":"2020-08-07"},{"APOAPSIS":"548.327","EPHEMERIS_TYPE":"0","INCLINATION":"53.0565","DECAY_DATE":null,"TLE_LINE1":"1 46035U 20055J   22339.55015461  .00001056  00000-0  89784-4 0  9998","COUNTRY_CODE":"US","REV_AT_EPOCH":"12951","EPOCH":"2022-12-05T13:12:13.358304","RCS_SIZE":"LARGE","LAUNCH_DATE":"2020-08-07","GP_ID":"219591943","OBJECT_TYPE":"PAYLOAD","SITE":"AFETR","ELEMENT_SET_NO":"999","TIME_SYSTEM":"UTC","FILE":"3682099","MEAN_ANOMALY":"290.6986","ARG_OF_PERICENTER":"69.4175","SEMIMAJOR_AXIS":"6925.351","PERIOD":"95.592","REF_FRAME":"TEME","MEAN_MOTION_DDOT":"0.0000000000000","OBJECT_NAME":"STARLINK-1558","PERIAPSIS":"546.104","MEAN_MOTION":"15.06399314","BSTAR":"0.00008978400000","OBJECT_ID":"2020-055J","NORAD_CAT_ID":"46035","MEAN_ELEMENT_THEORY":"SGP4","MEAN_MOTION_DOT":"0.00001056","ECCENTRICITY":"0.00016050","TLE_LINE2":"2 46035  53.0565  69.3529 0001605  69.4175 290.6986 15.06399314129511","RA_OF_ASC_NODE":"69.3529","CLASSIFICATION_TYPE":"U","CENTER_NAME":"EARTH"},{"EPOCH":"2022-12-05T17:37:36.667488","TLE_LINE1":"1 46036U 20055K   22339.73445217  .00002457  00000-0  18379-3 0  9992","REV_AT_EPOCH":"12954","COUNTRY_CODE":"US","INCLINATION":"53.0569","EPHEMERIS_TYPE":"0","DECAY_DATE":null,"APOAPSIS":"548.450","FILE":"3682465","ELEMENT_SET_NO":"999","SITE":"AFETR","TIME_SYSTEM":"UTC","GP_ID":"219624591","OBJECT_TYPE":"PAYLOAD","RCS_SIZE":"LARGE","LAUNCH_DATE":"2020-08-07","MEAN_MOTION":"15.06402318","BSTAR":"0.00018379000000","OBJECT_ID":"2020-055K","PERIOD":"95.592","MEAN_MOTION_DDOT":"0.0000000000000","REF_FRAME":"TEME","OBJECT_NAME":"STARLINK-1560","PERIAPSIS":"545.963","SEMIMAJOR_AXIS":"6925.341","MEAN_ANOMALY":"307.4678","ARG_OF_PERICENTER":"52.6474","CLASSIFICATION_TYPE":"U","CENTER_NAME":"EARTH","TLE_LINE2":"2 46036  53.0569  68.5503 0001796  52.6474 307.4678 15.06402318129543","RA_OF_ASC_NODE":"68.5503","ECCENTRICITY":"0.00017960","NORAD_CAT_ID":"46036","MEAN_ELEMENT_THEORY":"SGP4","MEAN_MOTION_DOT":"0.00002457"},{"FILE":"3682465","TIME_SYSTEM":"UTC","SITE":"AFETR","ELEMENT_SET_NO":"999","OBJECT_TYPE":"PAYLOAD","GP_ID":"219623345","RCS_SIZE":"LARGE","LAUNCH_DATE":"2020-08-07","EPOCH":"2022-12-05T17:32:18.070944","TLE_LINE1":"1 46037U 20055L   22339.73076471  .00001371  00000-0  11089-3 0  9990","REV_AT_EPOCH":"12953","COUNTRY_CODE":"US","INCLINATION":"53.0552","EPHEMERIS_TYPE":"0","DECAY_DATE":null,"APOAPSIS":"548.183","CLASSIFICATION_TYPE":"U","CENTER_NAME":"EARTH","TLE_LINE2":"2 46037  53.0552  68.5588 0001409  66.2655 293.8482 15.06402190129530","RA_OF_ASC_NODE":"68.5588","ECCENTRICITY":"0.00014090","MEAN_ELEMENT_THEORY":"SGP4","MEAN_MOTION_DOT":"0.00001371","NORAD_CAT_ID":"46037","OBJECT_ID":"2020-055L","MEAN_MOTION":"15.06402190","BSTAR":"0.00011089000000","MEAN_MOTION_DDOT":"0.0000000000000","REF_FRAME":"TEME","PERIAPSIS":"546.231","OBJECT_NAME":"STARLINK-1565","PERIOD":"95.592","SEMIMAJOR_AXIS":"6925.342","ARG_OF_PERICENTER":"66.2655","MEAN_ANOMALY":"293.8482"},{"SITE":"AFETR","ELEMENT_SET_NO":"999","TIME_SYSTEM":"UTC","FILE":"3682252","RCS_SIZE":"LARGE","LAUNCH_DATE":"2020-08-07","GP_ID":"219601008","OBJECT_TYPE":"PAYLOAD","REV_AT_EPOCH":"12901","TLE_LINE1":"1 46038U 20055M   22339.67916793  .00001602  00000-0  12642-3 0  9997","COUNTRY_CODE":"US","EPOCH":"2022-12-05T16:18:00.109152","APOAPSIS":"548.217","INCLINATION":"53.0561","EPHEMERIS_TYPE":"0","DECAY_DATE":null,"TLE_LINE2":"2 46038  53.0561  68.7719 0001453  65.8567 294.2574 15.06400770129017","RA_OF_ASC_NODE":"68.7719","CLASSIFICATION_TYPE":"U","CENTER_NAME":"EARTH","NORAD_CAT_ID":"46038","MEAN_MOTION_DOT":"0.00001602","MEAN_ELEMENT_THEORY":"SGP4","ECCENTRICITY":"0.00014530","PERIOD":"95.592","MEAN_MOTION_DDOT":"0.0000000000000","REF_FRAME":"TEME","OBJECT_NAME":"STARLINK-1567","PERIAPSIS":"546.205","MEAN_MOTION":"15.06400770","BSTAR":"0.00012642000000","OBJECT_ID":"2020-055M","MEAN_ANOMALY":"294.2574","ARG_OF_PERICENTER":"65.8567","SEMIMAJOR_AXIS":"6925.346"},{"APOAPSIS":"548.383","INCLINATION":"53.0583","EPHEMERIS_TYPE":"0","DECAY_DATE":null,"TLE_LINE1":"1 46039U 20055N   22339.55383928  .00002351  00000-0  17666-3 0  9996","COUNTRY_CODE":"US","REV_AT_EPOCH":"12950","EPOCH":"2022-12-05T13:17:31.713792","RCS_SIZE":"LARGE","LAUNCH_DATE":"2020-08-07","OBJECT_TYPE":"PAYLOAD","GP_ID":"219591444","TIME_SYSTEM":"UTC","SITE":"AFETR","ELEMENT_SET_NO":"999","FILE":"3682099","ARG_OF_PERICENTER":"55.9803","MEAN_ANOMALY":"304.1349","SEMIMAJOR_AXIS":"6925.331","REF_FRAME":"TEME","MEAN_MOTION_DDOT":"0.0000000000000","OBJECT_NAME":"STARLINK-1569","PERIAPSIS":"546.009","PERIOD":"95.592","OBJECT_ID":"2020-055N","MEAN_MOTION":"15.06405701","BSTAR":"0.00017666000000","MEAN_MOTION_DOT":"0.00002351","MEAN_ELEMENT_THEORY":"SGP4","NORAD_CAT_ID":"46039","ECCENTRICITY":"0.00017140","TLE_LINE2":"2 46039  53.0583  69.3356 0001714  55.9803 304.1349 15.06405701129503","RA_OF_ASC_NODE":"69.3356","CLASSIFICATION_TYPE":"U","CENTER_NAME":"EARTH"},{"OBJECT_NAME":"STARLINK-1576","PERIAPSIS":"546.143","MEAN_MOTION_DDOT":"0.0000000000000","REF_FRAME":"TEME","PERIOD":"95.592","OBJECT_ID":"2020-055P","BSTAR":"0.00011757000000","MEAN_MOTION":"15.06408965","ARG_OF_PERICENTER":"66.6924","MEAN_ANOMALY":"293.4223","SEMIMAJOR_AXIS":"6925.321","RA_OF_ASC_NODE":"69.5014","TLE_LINE2":"2 46040  53.0582  69.5014 0001506  66.6924 293.4223 15.06408965129460","CENTER_NAME":"EARTH","CLASSIFICATION_TYPE":"U","MEAN_ELEMENT_THEORY":"SGP4","MEAN_MOTION_DOT":"0.00001471","NORAD_CAT_ID":"46040","ECCENTRICITY":"0.00015060","REV_AT_EPOCH":"12946","TLE_LINE1":"1 46040U 20055P   22339.51698151  .00001471  00000-0  11757-3 0  9998","COUNTRY_CODE":"US","EPOCH":"2022-12-05T12:24:27.202464","APOAPSIS":"548.229","DECAY_DATE":null,"INCLINATION":"53.0582","EPHEMERIS_TYPE":"0","TIME_SYSTEM":"UTC","ELEMENT_SET_NO":"999","SITE":"AFETR","FILE":"3682099","LAUNCH_DATE":"2020-08-07","RCS_SIZE":"LARGE","OBJECT_TYPE":"PAYLOAD","GP_ID":"219590200"},{"MEAN_MOTION_DOT":"0.00002598","MEAN_ELEMENT_THEORY":"SGP4","NORAD_CAT_ID":"46041","ECCENTRICITY":"0.00017260","RA_OF_ASC_NODE":"68.6464","TLE_LINE2":"2 46041  53.0546  68.6464 0001726  62.0761 298.0402 15.06409244129026","CENTER_NAME":"EARTH","CLASSIFICATION_TYPE":"U","ARG_OF_PERICENTER":"62.0761","MEAN_ANOMALY":"298.0402","SEMIMAJOR_AXIS":"6925.320","OBJECT_NAME":"STARLINK-1580","PERIAPSIS":"545.990","MEAN_MOTION_DDOT":"0.0000000000000","REF_FRAME":"TEME","PERIOD":"95.592","OBJECT_ID":"2020-055Q","BSTAR":"0.00019320000000","MEAN_MOTION":"15.06409244","LAUNCH_DATE":"2020-08-07","RCS_SIZE":"LARGE","OBJECT_TYPE":"PAYLOAD","GP_ID":"219601043","TIME_SYSTEM":"UTC","ELEMENT_SET_NO":"999","SITE":"AFETR","FILE":"3682257","APOAPSIS":"548.381","DECAY_DATE":null,"EPHEMERIS_TYPE":"0","INCLINATION":"53.0546","TLE_LINE1":"1 46041U 20055Q   22339.72709745  .00002598  00000-0  19320-3 0  9999","REV_AT_EPOCH":"12902","COUNTRY_CODE":"US","EPOCH":"2022-12-05T17:27:01.219680"},{"OBJECT_TYPE":"PAYLOAD","GP_ID":"219623596","RCS_SIZE":"LARGE","LAUNCH_DATE":"2020-08-07","FILE":"3682465","TIME_SYSTEM":"UTC","SITE":"AFETR","ELEMENT_SET_NO":"999","EPHEMERIS_TYPE":"0","INCLINATION":"53.0571","DECAY_DATE":null,"APOAPSIS":"548.260","EPOCH":"2022-12-05T18:25:23.460960","COUNTRY_CODE":"US","TLE_LINE1":"1 46042U 20055R   22339.76763265  .00003033  00000-0  22245-3 0  9996","REV_AT_EPOCH":"12950","ECCENTRICITY":"0.00015150","MEAN_ELEMENT_THEORY":"SGP4","MEAN_MOTION_DOT":"0.00003033","NORAD_CAT_ID":"46042","CLASSIFICATION_TYPE":"U","CENTER_NAME":"EARTH","TLE_LINE2":"2 46042  53.0571  68.3922 0001515  71.3318 288.7835 15.06400885129509","RA_OF_ASC_NODE":"68.3922","SEMIMAJOR_AXIS":"6925.346","ARG_OF_PERICENTER":"71.3318","MEAN_ANOMALY":"288.7835","OBJECT_ID":"2020-055R","MEAN_MOTION":"15.06400885","BSTAR":"0.00022245000000","MEAN_MOTION_DDOT":"0.0000000000000","REF_FRAME":"TEME","PERIAPSIS":"546.162","OBJECT_NAME":"STARLINK-1581","PERIOD":"95.592"}];
